# From MPEC 2022-S20
C/1995 O1 (Hale-Bopp),e,89.4310,282.4344,130.4158,176.9252,0.0004188,0.99496659,0.0000,03/29.5053/1997,2000,g -2.0,4.0
# From NK 1615
P/1996 R2 (Lagerkvist),e,2.6009,40.0091,333.4284,3.774397,0.1344103,0.31459148,207.8647,05/10.0/2023,2000,g 11.5,4.0
# From MPC 75703
P/1998 VS24 (LINEAR),e,5.0264,159.0333,244.6756,4.524384,0.1024153,0.24340117,198.1363,05/10.0/2023,2000,g 13.0,2.0
# From NK 731
P/1999 RO28 (LONEOS),e,7.5643,137.8554,231.3259,3.426361,0.1554012,0.67251235,219.5281,05/10.0/2023,2000,g 20.0,2.0
# From MPC 75704
P/1999 XN120 (Catalina),e,5.0298,285.2960,161.6627,4.178976,0.1153717,0.21056365,249.4994,05/10.0/2023,2000,g 13.5,2.0
# From NK 744
P/2000 R2 (LINEAR),e,11.6845,160.2846,176.5990,3.468018,0.1526097,0.53122036,217.0286,05/10.0/2023,2000,g 18.0,4.0
# From MPC 43019
P/2001 H5 (NEAT),e,8.3670,328.6837,224.6852,6.095544,0.0654916,0.59824497,181.2445,05/10.0/2023,2000,g 12.0,4.0
# From MPC 75704
P/2001 Q6 (NEAT),e,56.9118,22.1841,42.9409,7.962906,0.0438628,0.82348794,347.0898,05/10.0/2023,2000,g 13.5,4.0
# From MPC 47727
P/2002 EJ57 (LINEAR),e,4.9794,330.2905,167.2704,6.461067,0.0600133,0.59263086,107.2744,05/10.0/2023,2000,g 12.5,4.0
# From MPC109588
P/2002 T6 (NEAT-LINEAR),e,10.8568,206.0447,219.4151,7.756925,0.0456215,0.56368381,340.1132,05/10.0/2023,2000,g 10.5,4.0
# From MPC 75007
C/2002 VQ94 (LINEAR),e,70.7063,35.1575,99.9240,184.4843,0.0003933,0.96317269,2.4807,05/10.0/2023,2000,g  9.5,2.0
# From MPC 50354
P/2003 F2 (NEAT),e,11.6171,358.9721,192.2745,6.501007,0.0594611,0.54130992,75.8119,05/10.0/2023,2000,g 16.5,2.0
# From MPC 50139
P/2003 QX29 (NEAT),e,11.3956,264.4990,37.6965,8.011941,0.0434608,0.47227613,324.3691,05/10.0/2023,2000,g  8.5,4.0
# From MPC105235
P/2003 T12 (SOHO),e,11.0218,174.5807,219.7643,2.585111,0.2371293,0.77023031,260.2285,05/10.0/2023,2000,g 17.0,4.0
# From MPC 54558
P/2004 DO29 (Spacewatch-LINEAR),e,14.5292,147.3796,40.4555,7.300833,0.0499626,0.44155733,340.4956,05/10.0/2023,2000,g 13.5,2.0
# From MPEC 2022-YN2
P/2004 FY140 (LINEAR),e,2.1619,327.2726,254.1948,4.969487,0.0889686,0.19165119,236.7487,05/10.0/2023,2000,g 12.5,2.0
# From MPC 53304
P/2004 R3 (LINEAR-NEAT),e,12.7841,305.2925,37.5811,4.759401,0.0949239,0.25509424,56.7085,05/10.0/2023,2000,g 14.5,4.0
# From MPC 55521
P/2004 V3 (Siding Spring),e,50.4443,356.1262,322.5248,7.126709,0.0518049,0.44574378,349.7788,05/10.0/2023,2000,g 11.5,4.0
# From MPC 75705
P/2004 V5 (LINEAR-Hill),e,19.3485,47.7710,87.5113,7.996931,0.0435832,0.44555367,292.2325,05/10.0/2023,2000,g  8.0,4.0
# From MPC 54164
P/2005 E1 (Tubbiolo),e,4.2623,335.5786,193.8450,7.054956,0.0525972,0.37594128,352.5836,05/10.0/2023,2000,g 10.0,4.0
# From MPC 79019
P/2005 J1 (McNaught),e,31.7332,268.8290,338.9067,3.572536,0.1459618,0.56894552,244.1114,05/10.0/2023,2000,g 16.5,4.0
# From MPC 74246
P/2005 L1 (McNaught),e,7.6969,137.9127,150.9026,4.005275,0.1229577,0.21534270,67.3435,05/10.0/2023,2000,g  9.5,4.0
# From MPC 75706
P/2005 S2 (Skiff),e,3.1357,161.2190,229.5905,8.000549,0.0435536,0.19877971,269.3929,05/10.0/2023,2000,g  7.5,4.0
# From MPC 75706
P/2005 SB216 (LONEOS),e,24.1189,1.1177,83.2182,7.149548,0.0515568,0.46499008,309.4217,05/10.0/2023,2000,g 12.0,2.0
# From MPC 73461
P/2005 T3 (Read),e,6.2246,27.6442,6.7296,7.588418,0.0471495,0.17552657,303.7693,05/10.0/2023,2000,g  9.0,4.0
# From MPC 73461
P/2005 T4 (SWAN),e,160.2756,25.9389,41.8683,9.357213,0.0344337,0.92994462,221.0075,05/10.0/2023,2000,g 15.0,4.0
# From MPC 75706
P/2005 T5 (Broughton),e,21.3826,57.0038,304.7367,7.276124,0.0502174,0.55258620,321.5122,05/10.0/2023,2000,g 11.0,4.0
# From MPC 75707
P/2006 HR30 (Siding Spring),e,31.8803,309.7921,117.4313,7.806893,0.0451842,0.84335143,270.5816,05/10.0/2023,2000,g 11.0,4.0
# From MPC 75707
P/2007 C2 (Catalina),e,8.6040,275.2584,180.1880,7.002569,0.0531885,0.47250699,304.2829,05/10.0/2023,2000,g 10.0,4.0
# From MPC 84315
C/2007 D1 (LINEAR),e,41.5024,171.2122,339.7423,1159,0.0000250,0.99243274,0.0000,06/07.8106/2007,2000,g  3.5,4.0
# From MPC 82314
P/2007 K2 (Gibbs),e,7.6276,188.6348,347.3138,7.281724,0.0501594,0.68350532,293.3374,05/10.0/2023,2000,g 14.0,4.0
# From MPC 60925
P/2007 Q2 (Gilmore),e,10.2022,172.1578,162.8791,5.659059,0.0732129,0.66983169,65.4646,05/10.0/2023,2000,g 16.0,4.0
# From MPC 73462
P/2007 S1 (Zhao),e,5.9611,141.3409,245.1890,3.817367,0.1321473,0.33862768,28.4470,05/10.0/2023,2000,g 13.0,4.0
# From MPC 61994
P/2007 T2 (Kowalski),e,9.7512,3.3735,359.6793,3.044860,0.1855039,0.78567463,324.4546,05/10.0/2023,2000,g 18.5,4.0
# From MPC 75709
P/2008 L2 (Hill),e,25.8692,218.0131,141.2588,6.033922,0.0664974,0.61385890,359.9318,05/10.0/2023,2000,g 12.5,4.0
# From MPC 64114
P/2008 O3 (Boattini),e,32.3451,47.5605,341.1955,8.213426,0.0418714,0.69650835,228.2678,05/10.0/2023,2000,g 13.0,4.0
# From MPC 75710
P/2008 Y3 (McNaught),e,38.7822,262.8790,238.0051,8.046580,0.0431804,0.44627445,227.1264,05/10.0/2023,2000,g  8.5,4.0
# From MPC 75710
P/2009 B1 (Boattini),e,22.2442,297.0702,128.9297,6.735801,0.0563794,0.63583879,295.3071,05/10.0/2023,2000,g 13.0,4.0
# From MPC 66466
C/2009 G1 (STEREO),e,108.3760,120.6290,175.5265,470.2365,0.0000967,0.99757877,0.0000,04/19.0998/2009,2000,g  9.0,4.0
# From MPC 75710
P/2009 O3 (Hill),e,16.2875,183.6860,154.5000,7.767007,0.0455327,0.68751209,231.8690,05/10.0/2023,2000,g 12.5,4.0
# From MPC 68902
P/2009 Q5 (McNaught),e,40.9754,160.2583,209.1482,7.427856,0.0486865,0.60992674,242.5733,05/10.0/2023,2000,g 10.0,4.0
# From MPC112389
P/2009 T2 (La Sagra),e,27.6127,215.9144,216.3290,7.716425,0.0459812,0.76682009,224.1900,05/10.0/2023,2000,g 14.0,4.0
# From MPC105235
P/2009 WX51 (Catalina),e,9.5958,31.5472,118.2711,3.082753,0.1820942,0.73929404,164.8666,05/10.0/2023,2000,g 19.0,2.0
# From MPC 74247
P/2009 Y2 (Kowalski),e,29.9718,262.0520,172.1489,6.548221,0.0588192,0.63703743,283.4184,05/10.0/2023,2000,g 13.0,4.0
# From MPC 75711
P/2010 A3 (Hill),e,14.8147,63.6021,42.2997,6.089488,0.0655893,0.73387857,315.9469,05/10.0/2023,2000,g 14.0,4.0
# From MPC 75008
P/2010 C1 (Scotti),e,9.1213,141.8383,3.2274,7.108623,0.0520027,0.26133069,257.4061,05/10.0/2023,2000,g  9.5,4.0
# From MPC 75008
P/2010 D2 (WISE),e,57.1075,319.8799,119.9123,6.722367,0.0565485,0.45154729,273.9711,05/10.0/2023,2000,g 16.0,4.0
# From MPC 75009
P/2010 E2 (Jarnac),e,15.3882,177.8219,8.2711,8.639869,0.0388100,0.71952307,186.2088,05/10.0/2023,2000,g 14.0,4.0
# From MPC 72851
P/2010 H2 (Vales),e,14.2805,64.1872,128.0339,3.831662,0.1314085,0.19695438,271.9875,05/10.0/2023,2000,g  6.0,4.0
# From MPC 70361
P/2010 H3 (SOHO),e,23.1085,77.1337,26.1060,3.036119,0.1863056,0.98542698,0.0000,02/07.8554/2021,2000,g 20.0,2.0
# From MPC 73463
P/2010 H4 (Scotti),e,2.3178,44.7272,179.1916,6.604001,0.0580756,0.26603494,274.5230,05/10.0/2023,2000,g 10.5,4.0
# From MPC 74637
P/2010 H5 (Scotti),e,14.0570,24.7926,174.5519,7.173438,0.0512995,0.15264214,246.6822,05/10.0/2023,2000,g 13.0,2.0
# From MPC 98558
P/2010 J3 (McMillan),e,13.2545,106.4896,157.5497,8.982624,0.0366100,0.72506859,170.0116,05/10.0/2023,2000,g 11.0,4.0
# From MPC 84315
P/2010 JC81 (WISE),e,38.8317,30.8721,12.4402,8.104790,0.0427161,0.77811020,187.7568,05/10.0/2023,2000,g  9.0,4.0
# From MPEC 2023-HM7
P/2010 OE101 (WISE),e,18.4122,194.3758,174.8028,3.142396,0.1769345,0.57035067,102.9898,05/10.0/2023,2000,g 18.5,4.0
# From MPC 74248
P/2010 T2 (PANSTARRS),e,7.8950,58.4274,352.2460,5.597345,0.0744271,0.32579689,337.1346,05/10.0/2023,2000,g 11.5,4.0
# From MPEC 2023-B57
P/2010 TO20 (LINEAR-Grauer),e,2.4788,43.2769,267.6505,5.832557,0.0699706,0.05563266,11.3034,05/10.0/2023,2000,g  9.0,4.0
# From MPC 82316
P/2010 U1 (Boattini),e,8.2230,280.6727,86.3803,6.498284,0.0594985,0.24917249,287.6559,05/10.0/2023,2000,g  9.5,4.0
# From MPEC 2023-HD1
C/2010 U3 (Boattini),e,55.5623,42.9897,88.0380,3069,0.0000058,0.99725012,0.0000,02/25.5519/2019,2000,g  7.5,4.0
# From MPC 79021
P/2010 UH55 (Spacewatch),e,8.0376,232.8933,225.1566,6.654139,0.0574204,0.56402090,253.7066,05/10.0/2023,2000,g 11.0,4.0
# From MPC 75009
P/2010 WK (LINEAR),e,11.4018,11.3287,41.0022,5.761932,0.0712610,0.69061601,328.7637,05/10.0/2023,2000,g 14.5,2.0
# From MPC 84021
P/2011 C2 (Gibbs),e,10.8881,12.1196,160.3473,7.412627,0.0488367,0.26940389,203.5161,05/10.0/2023,2000,g  9.0,4.0
# From MPC 79866
P/2011 FR143 (Lemmon),e,15.9759,190.9494,349.8584,6.865685,0.0547871,0.45102768,244.8917,05/10.0/2023,2000,g 14.0,2.0
# From MPC 82317
P/2011 JB15 (Spacewatch-Boattini),e,19.1438,153.6011,110.9895,7.369804,0.0492629,0.31540467,203.7263,05/10.0/2023,2000,g  9.0,4.0
# From MPC 87913
P/2011 N1 (ASH),e,35.7810,77.5758,330.4213,6.242623,0.0631907,0.54526725,252.8585,05/10.0/2023,2000,g 11.5,4.0
# From MPC 75714
P/2011 NO1 (Elenin),e,15.2450,295.8256,263.7066,5.534582,0.0756967,0.77475288,341.0026,05/10.0/2023,2000,g 15.0,4.0
# From MPEC 2022-ED3
P/2011 P1 (McNaught),e,5.6598,4.2288,349.1953,7.458586,0.0483860,0.32755245,225.5725,05/10.0/2023,2000,g  9.0,4.0
# From MPEC 2022-HC2
P/2011 S1 (Gibbs),e,2.6884,218.8172,192.5954,8.584548,0.0391857,0.20167677,124.9032,05/10.0/2023,2000,g  8.0,4.0
# From MPC 79022
P/2011 UA134 (Spacewatch-PANSTARRS),e,10.4403,40.3936,32.4140,5.610035,0.0741747,0.62993933,311.8686,05/10.0/2023,2000,g 17.5,4.0
# From MPC 77406
P/2011 V1 (Boattini),e,7.3751,46.7748,269.3898,3.857850,0.1300727,0.54979475,218.6452,05/10.0/2023,2000,g 15.5,4.0
# From MPC 82718
P/2011 W1 (PANSTARRS),e,3.7185,161.7851,282.8262,4.668223,0.0977185,0.28829561,44.5427,05/10.0/2023,2000,g 11.5,4.0
# From MPC 79342
P/2011 Y2 (Boattini),e,6.3814,309.3101,131.9852,6.236652,0.0632815,0.71060946,258.3313,05/10.0/2023,2000,g 15.0,4.0
# From MPEC 2022-K19
P/2012 B1 (PANSTARRS),e,7.6104,36.2163,162.2952,6.532382,0.0590333,0.40918600,212.1933,05/10.0/2023,2000,g  9.0,4.0
# From MPC 78590
P/2012 C3 (PANSTARRS),e,9.0920,135.3677,344.9542,9.748681,0.0323806,0.63011148,359.9758,10/06.0/2011,2000,g 13.0,4.0
# From MPC 84931
P/2012 F2 (PANSTARRS),e,14.6979,226.9705,33.3022,6.338054,0.0617689,0.54066446,227.6945,05/10.0/2023,2000,g 12.0,4.0
